     2.100          NAVIGATION                              RINEX VERSION / TYPE
fic2rin                                 01/13/2012 00:54:12 PGM / RUN BY / DATE
                                                            END OF HEADER
 9 12  1 12 22  0  0.0  .131409149617D-03  .261479726760D-11  .000000000000D+00
     .790000000000D+02  .732812500000D+02  .410767110099D-08 -.626476464357D+00
     .397302210331D-05  .171603325289D-01  .871717929840D-05  .515364171219D+04
     .424800000000D+06 -.184401869774D-06 -.187958935146D+01  .391155481339D-07
     .984211094445D+00  .226656250000D+03  .160427043793D+01 -.820784188956D-08
     .309655755548D-09  .100000000000D+01  .167000000000D+04  .000000000000D+00
     .240000000000D+01  .000000000000D+00 -.558793544769D-08  .790000000000D+02
     .417606000000D+06  .400000000000D+01
10 12  1 12 22  0  0.0 -.253990292549D-04 -.125055521494D-11  .000000000000D+00
     .370000000000D+02  .906250000000D+00  .537629537285D-08 -.243335480960D+01
    -.193715095520D-06  .110888913041D-01  .447407364845D-05  .515365359688D+04
     .424800000000D+06  .109896063805D-06  .234427950374D+01 -.169500708580D-06
     .946761602912D+00  .285281250000D+03  .733110203085D+00 -.845749514576D-08
     .289297764699D-10  .100000000000D+01  .167000000000D+04  .000000000000D+00
     .240000000000D+01  .000000000000D+00 -.279396772385D-08  .370000000000D+02
     .417606000000D+06  .400000000000D+01
11 12  1 12 22  0  0.0 -.222278293222D-03 -.363797880709D-11  .000000000000D+00
     .580000000000D+02  .245937500000D+02  .610346851968D-08  .207593175180D+00
     .127218663692D-05  .127278834116D-01  .114683061838D-04  .515367851830D+04
     .424800000000D+06 -.156462192535D-06  .100948555267D+01  .223517417908D-06
     .887916009906D+00  .122250000000D+03  .102046730711D+01 -.891715714967D-08
     .357872049664D-09  .100000000000D+01  .167000000000D+04  .000000000000D+00
     .240000000000D+01  .000000000000D+00 -.116415321827D-07  .580000000000D+02
     .417606000000D+06  .400000000000D+01
13 12  1 12 22  0  0.0  .231062993407D-03 -.216004991671D-11  .000000000000D+00
     .117000000000D+03 -.340625000000D+01  .378944355982D-08  .244997495168D+01
    -.115483999252D-06  .467982655391D-02  .116117298603D-04  .515373703957D+04
     .424800000000D+06  .137835741043D-06 -.282458445299D+01 -.689178705215D-07
     .987645142493D+00  .165843750000D+03  .194135207187D+01 -.761567436626D-08
    -.491091884520D-09  .100000000000D+01  .167000000000D+04  .000000000000D+00
     .340000000000D+01  .000000000000D+00 -.116415321827D-07  .117000000000D+03
     .417606000000D+06  .400000000000D+01
14 12  1 12 22  0  0.0  .189773272723D-03  .159161572810D-11  .000000000000D+00
     .440000000000D+02 -.634375000000D+01  .389373361821D-08  .246293559979D+01
    -.402331352234D-06  .621724186931D-02  .105760991573D-04  .515376678085D+04
     .424800000000D+06 -.223517417908D-07 -.285033027074D+01 -.856816768646D-07
     .980551717515D+00  .184281250000D+03 -.205521881113D+01 -.761603152400D-08
    -.420374653149D-09  .100000000000D+01  .167000000000D+04  .000000000000D+00
     .240000000000D+01  .000000000000D+00 -.884756445885D-08  .440000000000D+02
     .417606000000D+06  .400000000000D+01
15 12  1 12 22  0  0.0 -.947513617575D-04  .682121026330D-12  .000000000000D+00
     .560000000000D+02 -.241562500000D+02  .484663045304D-08  .213197444790D+01
    -.106915831566D-05  .422812986653D-02  .102147459984D-04  .515375391197D+04
     .424800000000D+06 -.242143869400D-07 -.293361652596D+01  .596046447754D-07
     .947484648710D+00  .176781250000D+03 -.477566242265D-02 -.816926885427D-08
    -.495020619596D-09  .100000000000D+01  .167000000000D+04  .000000000000D+00
     .240000000000D+01  .000000000000D+00 -.102445483208D-07  .560000000000D+02
     .417606000000D+06  .400000000000D+01
16 12  1 12 22  0  0.0 -.218534842134D-03 -.181898940355D-11  .000000000000D+00
     .650000000000D+02 -.368750000000D+02  .444197074020D-08 -.243995834720D+01
    -.185705721378D-05  .631107832305D-02  .276230275631D-05  .515358871078D+04
     .424800000000D+06 -.596046447754D-07 -.778531603366D+00 -.447034835815D-07
     .978983119696D+00  .338406250000D+03 -.819337435664D-01 -.825034365993D-08
    -.621454457501D-10  .100000000000D+01  .167000000000D+04  .000000000000D+00
     .240000000000D+01  .000000000000D+00 -.977888703346D-08  .650000000000D+02
     .417606000000D+06  .400000000000D+01
17 12  1 12 22  0  0.0  .155168585479D-03 -.227373675443D-11  .000000000000D+00
     .830000000000D+02 -.107375000000D+03  .418624580251D-08  .290096933366D+01
    -.545755028725D-05  .701075012330D-02  .111255794764D-04  .515362878227D+04
     .424800000000D+06  .484287738800D-07  .262558816857D+00 -.875443220139D-07
     .962660921366D+00  .163375000000D+03 -.236959573705D+01 -.780639659632D-08
    -.171435712414D-09  .100000000000D+01  .167000000000D+04  .000000000000D+00
     .340000000000D+01  .000000000000D+00 -.107102096081D-07  .830000000000D+02
     .417606000000D+06  .400000000000D+01
18 12  1 12 22  0  0.0  .176452100277D-03  .181898940355D-11  .000000000000D+00
     .640000000000D+02  .359375000000D+01  .562237705171D-08 -.193730902273D+01
     .197440385818D-06  .127569119213D-01  .388920307159D-05  .515365667915D+04
     .424800000000D+06  .184401869774D-06  .233517839486D+01 -.111758708954D-07
     .930598804136D+00  .284375000000D+03 -.219924392843D+01 -.855928510001D-08
     .646455498895D-10  .100000000000D+01  .167000000000D+04  .000000000000D+00
     .240000000000D+01  .000000000000D+00 -.111758708954D-07  .640000000000D+02
     .417606000000D+06  .400000000000D+01
19 12  1 12 22  0  0.0 -.224941875786D-03 -.386535248253D-11  .000000000000D+00
     .730000000000D+02 -.822500000000D+02  .433160900033D-08  .209053254175D+01
    -.423751771450D-05  .782418670133D-02  .109057873487D-04  .515374306297D+04
     .424800000000D+06 -.763684511185D-07  .315932157054D+00  .149011611938D-06
     .960065053695D+00  .168843750000D+03  .137437287055D+00 -.793497338063D-08
    -.192508018732D-09  .100000000000D+01  .167000000000D+04  .000000000000D+00
     .240000000000D+01  .000000000000D+00 -.144354999065D-07  .730000000000D+02
     .417606000000D+06  .400000000000D+01
20 12  1 12 22  0  0.0  .599375925958D-04  .795807864051D-12  .000000000000D+00
     .370000000000D+02  .665625000000D+01  .580559896936D-08 -.150964266014D+01
     .502914190292D-06  .508397072554D-02  .402145087719D-05  .515378132439D+04
     .424800000000D+06  .782310962677D-07  .228135858523D+01  .670552253723D-07
     .930914917326D+00  .287218750000D+03  .126615700786D+01 -.876786521678D-08
    -.642883921553D-11  .100000000000D+01  .167000000000D+04  .000000000000D+00
     .240000000000D+01  .000000000000D+00 -.791624188423D-08  .370000000000D+02
     .417606000000D+06  .400000000000D+01
21 12  1 12 22  0  0.0 -.197191257030D-03 -.261479726760D-11  .000000000000D+00
     .500000000000D+02  .450000000000D+02  .520664544911D-08 -.871196325030D+00
     .265613198280D-05  .183863302227D-01  .904873013496D-05  .515366685295D+04
     .424800000000D+06  .238418579102D-06  .128268284292D+01  .346451997757D-06
     .931180796835D+00  .189062500000D+03 -.230364921722D+01 -.850749722855D-08
     .462519265784D-09  .100000000000D+01  .167000000000D+04  .000000000000D+00
     .240000000000D+01  .000000000000D+00 -.111758708954D-07  .500000000000D+02
     .417606000000D+06  .400000000000D+01
22 12  1 12 22  0  0.0  .142978038639D-03 -.113686837722D-12  .000000000000D+00
     .690000000000D+02  .534375000000D+01  .572416700596D-08 -.279833923744D+01
     .173225998878D-06  .572236371227D-02  .416114926338D-05  .515368918800D+04
     .424800000000D+06  .149011611938D-06  .233884252481D+01 -.391155481339D-07
     .928312077387D+00  .281625000000D+03 -.198610323623D+01 -.867893294096D-08
    -.592881838766D-10  .100000000000D+01  .167000000000D+04  .000000000000D+00
     .340000000000D+01  .000000000000D+00 -.167638063431D-07  .690000000000D+02
     .417606000000D+06  .400000000000D+01
25 12  1 12 22  0  0.0  .310367904603D-04  .227373675443D-12  .000000000000D+00
     .104000000000D+03 -.222187500000D+02  .466805158594D-08 -.137720333761D+01
    -.117346644402D-05  .109737482853D-02  .275112688541D-05  .515377231789D+04
     .424800000000D+06  .447034835815D-07 -.829108503971D+00  .186264514923D-08
     .966889374892D+00  .332125000000D+03  .719325102618D+00 -.839713548868D-08
    -.717887045734D-10  .100000000000D+01  .167000000000D+04  .000000000000D+00
     .240000000000D+01  .000000000000D+00  .512227416039D-08  .104000000000D+03
     .417606000000D+06  .400000000000D+01
27 12  1 12 22  0  0.0  .345659442246D-03  .397903932026D-11  .000000000000D+00
     .000000000000D+00  .916562500000D+02  .391623455546D-08  .244684806815D+01
     .486336648464D-05  .219672817038D-01  .873394310474D-05  .515356950951D+04
     .424800000000D+06  .378116965294D-06 -.190612331632D+01 -.931322574615D-08
     .981730471072D+00  .212000000000D+03 -.114501520918D+01 -.759245911354D-08
     .660741808263D-10  .100000000000D+01  .167000000000D+04  .000000000000D+00
     .240000000000D+01  .000000000000D+00 -.419095158577D-08  .256000000000D+03
     .417606000000D+06  .400000000000D+01
28 12  1 12 22  0  0.0  .102128833532D-03  .363797880709D-11  .000000000000D+00
     .290000000000D+02 -.385312500000D+02  .439732602342D-08 -.279822631333D+01
    -.198930501938D-05  .177934111562D-01  .230595469475D-05  .515370400238D+04
     .424800000000D+06  .184401869774D-06 -.771614871097D+00 -.670552253723D-07
     .977325144898D+00  .342593750000D+03 -.185467620474D+01 -.801711965950D-08
    -.928610108910D-11  .100000000000D+01  .167000000000D+04  .000000000000D+00
     .240000000000D+01  .000000000000D+00 -.107102096081D-07  .290000000000D+02
     .417606000000D+06  .400000000000D+01
